ISS OBJECT YC           
1 67686U 98067YC  26040.88651277  .00047700  00000+0  84454-3 0  9994
2 67686  51.6307 209.7494 0007758  69.9375 290.2448 15.49776266   471
LEOPARD                 
1 67687U 98067YD  26040.88683965  .00040641  00000+0  72498-3 0  9996
2 67687  51.6308 209.7511 0007904  71.0710 289.1135 15.49634111   396
ISS OBJECT YE           
1 67688U 98067YE  26040.88655889  .00046819  00000+0  83022-3 0  9999
2 67688  51.6309 209.7496 0007773  69.6595 290.5228 15.49740553   395
PRC TEST SPACECRAFT 4   
1 67689U 26024A   26040.88458825  .00006471  00000+0  13475-3 0  9990
2 67689  49.9883 153.9450 0177652 159.6192 201.1973 15.31897115   427
CZ-2F R/B               
1 67690U 26024B   26040.75321049  .00009918  00000+0  19082-3 0  9994
2 67690  49.9890 154.5891 0178740 159.3290 201.5018 15.33080913   402
CZ-2F DEB               
1 67691U 26024C   26040.77736899  .00219040  10249-4  31794-3 0  9994
2 67691  49.9061 154.0414 0284737 164.9294 196.0383 15.58953928   415
CZ-2F DEB               
1 67692U 26024D   26040.51445789  .01037071  10166-4  16463-3 0  9999
2 67692  50.3761 155.8636 0347659 202.7642 155.7595 15.62132248   365
CZ-2F DEB               
1 67720U 26024G   26040.55806814  .00189924  00000+0  51552-2 0  9997
2 67720  49.8307 156.3970 0356521 155.6766 206.1473 14.91513523   348
